TIANMU-1 04             
1 55974U 23039B   26172.50017186  .00013293  00000+0  25608-3 0  9994
2 55974  97.5177 345.7923 0004718  83.9821 276.1966 15.47992980181519
TIANMU-1 05             
1 55975U 23039C   26172.49333985  .00012617  00000+0  24893-3 0  9995
2 55975  97.5221 346.2447 0004106 104.9703 255.2001 15.47316256181481
TIANMU-1 06             
1 55976U 23039D   26172.50381902  .00013184  00000+0  25487-3 0  9990
2 55976  97.5229 346.8955 0004324  99.6322 260.5416 15.47896063181511
TIANMU-1 07             
1 57399U 23101A   26172.48254884  .00004853  00000+0  17043-3 0  9998
2 57399  97.2589 223.0524 0004274 112.8221 247.3472 15.29848940162308
TIANMU-1 08             
1 57400U 23101B   26172.51458675  .00005094  00000+0  17870-3 0  9995
2 57400  97.2578 222.8538 0005687 104.7184 255.4688 15.29854432162300
TIANMU-1 09             
1 57401U 23101C   26172.49791285  .00005141  00000+0  18018-3 0  9998
2 57401  97.2536 222.2510 0004785 117.1207 243.0522 15.29886210162300
TIANMU-1 10             
1 57402U 23101D   26172.46563515  .00005026  00000+0  17632-3 0  9992
2 57402  97.2615 223.2743 0006346 115.1029 245.0871 15.29857439162291
TIANMU-1 11             
1 58645U 23205A   26172.50950514  .00004206  00000+0  16121-3 0  9992
2 58645  97.3448 193.9985 0008423   2.1524 357.9750 15.27032570138189
TIANMU-1 12             
1 58646U 23205B   26172.54550061  .00004499  00000+0  17246-3 0  9993
2 58646  97.3438 193.7888 0006195 347.6663  12.4424 15.26998880138178
TIANMU-1 13             
1 58647U 23205C   26172.51256397  .00004285  00000+0  16517-3 0  9999
2 58647  97.3464 194.0296 0005433 323.2905  36.7961 15.26851187138160
