{
 "generated_at": "2026-06-22T10:39:18Z",
 "sources": [
  {
   "name": "CelesTrak",
   "url": "https://celestrak.org/NORAD/elements/",
   "license": "frei verfügbar; Attribution. Ursprünglich USSPACECOM/Space-Track."
  },
  {
   "name": "GCAT (J. McDowell, planet4589.org)",
   "url": "https://planet4589.org/space/gcat/",
   "license": "CC-BY 4.0"
  }
 ],
 "satellites": [
  {
   "norad": 55974,
   "name": "TIANMU-1 04",
   "intl": "2023-039B",
   "group": "weather",
   "gcat": {
    "class": "B",
    "category": "MET",
    "owner": "TIANMU",
    "state": "CN"
   },
   "omm": {
    "OBJECT_NAME": "TIANMU-1 04",
    "OBJECT_ID": "2023-039B",
    "EPOCH": "2026-06-21T12:00:14.848704",
    "MEAN_MOTION": 15.4799298,
    "ECCENTRICITY": 0.0004718,
    "INCLINATION": 97.5177,
    "RA_OF_ASC_NODE": 345.7923,
    "ARG_OF_PERICENTER": 83.9821,
    "MEAN_ANOMALY": 276.1966,
    "EPHEMERIS_TYPE": 0,
    "CLASSIFICATION_TYPE": "U",
    "NORAD_CAT_ID": 55974,
    "ELEMENT_SET_NO": 999,
    "REV_AT_EPOCH": 18151,
    "BSTAR": 0.00025608,
    "MEAN_MOTION_DOT": 0.00013293,
    "MEAN_MOTION_DDOT": 0
   }
  },
  {
   "norad": 55975,
   "name": "TIANMU-1 05",
   "intl": "2023-039C",
   "group": "weather",
   "gcat": {
    "class": "B",
    "category": "MET",
    "owner": "TIANMU",
    "state": "CN"
   },
   "omm": {
    "OBJECT_NAME": "TIANMU-1 05",
    "OBJECT_ID": "2023-039C",
    "EPOCH": "2026-06-21T11:50:24.563040",
    "MEAN_MOTION": 15.47316256,
    "ECCENTRICITY": 0.0004106,
    "INCLINATION": 97.5221,
    "RA_OF_ASC_NODE": 346.2447,
    "ARG_OF_PERICENTER": 104.9703,
    "MEAN_ANOMALY": 255.2001,
    "EPHEMERIS_TYPE": 0,
    "CLASSIFICATION_TYPE": "U",
    "NORAD_CAT_ID": 55975,
    "ELEMENT_SET_NO": 999,
    "REV_AT_EPOCH": 18148,
    "BSTAR": 0.00024893,
    "MEAN_MOTION_DOT": 0.00012617,
    "MEAN_MOTION_DDOT": 0
   }
  },
  {
   "norad": 55976,
   "name": "TIANMU-1 06",
   "intl": "2023-039D",
   "group": "weather",
   "gcat": {
    "class": "B",
    "category": "MET",
    "owner": "TIANMU",
    "state": "CN"
   },
   "omm": {
    "OBJECT_NAME": "TIANMU-1 06",
    "OBJECT_ID": "2023-039D",
    "EPOCH": "2026-06-21T12:05:29.963328",
    "MEAN_MOTION": 15.47896063,
    "ECCENTRICITY": 0.0004324,
    "INCLINATION": 97.5229,
    "RA_OF_ASC_NODE": 346.8955,
    "ARG_OF_PERICENTER": 99.6322,
    "MEAN_ANOMALY": 260.5416,
    "EPHEMERIS_TYPE": 0,
    "CLASSIFICATION_TYPE": "U",
    "NORAD_CAT_ID": 55976,
    "ELEMENT_SET_NO": 999,
    "REV_AT_EPOCH": 18151,
    "BSTAR": 0.00025487,
    "MEAN_MOTION_DOT": 0.00013184,
    "MEAN_MOTION_DDOT": 0
   }
  },
  {
   "norad": 57399,
   "name": "TIANMU-1 07",
   "intl": "2023-101A",
   "group": "weather",
   "gcat": {
    "class": "B",
    "category": "MET",
    "owner": "TIANMU",
    "state": "CN"
   },
   "omm": {
    "OBJECT_NAME": "TIANMU-1 07",
    "OBJECT_ID": "2023-101A",
    "EPOCH": "2026-06-21T11:34:52.219776",
    "MEAN_MOTION": 15.2984894,
    "ECCENTRICITY": 0.0004274,
    "INCLINATION": 97.2589,
    "RA_OF_ASC_NODE": 223.0524,
    "ARG_OF_PERICENTER": 112.8221,
    "MEAN_ANOMALY": 247.3472,
    "EPHEMERIS_TYPE": 0,
    "CLASSIFICATION_TYPE": "U",
    "NORAD_CAT_ID": 57399,
    "ELEMENT_SET_NO": 999,
    "REV_AT_EPOCH": 16230,
    "BSTAR": 0.00017043,
    "MEAN_MOTION_DOT": 0.00004853,
    "MEAN_MOTION_DDOT": 0
   }
  },
  {
   "norad": 57400,
   "name": "TIANMU-1 08",
   "intl": "2023-101B",
   "group": "weather",
   "gcat": {
    "class": "B",
    "category": "MET",
    "owner": "TIANMU",
    "state": "CN"
   },
   "omm": {
    "OBJECT_NAME": "TIANMU-1 08",
    "OBJECT_ID": "2023-101B",
    "EPOCH": "2026-06-21T12:21:00.295200",
    "MEAN_MOTION": 15.29854432,
    "ECCENTRICITY": 0.0005687,
    "INCLINATION": 97.2578,
    "RA_OF_ASC_NODE": 222.8538,
    "ARG_OF_PERICENTER": 104.7184,
    "MEAN_ANOMALY": 255.4688,
    "EPHEMERIS_TYPE": 0,
    "CLASSIFICATION_TYPE": "U",
    "NORAD_CAT_ID": 57400,
    "ELEMENT_SET_NO": 999,
    "REV_AT_EPOCH": 16230,
    "BSTAR": 0.0001787,
    "MEAN_MOTION_DOT": 0.00005094,
    "MEAN_MOTION_DDOT": 0
   }
  },
  {
   "norad": 57401,
   "name": "TIANMU-1 09",
   "intl": "2023-101C",
   "group": "weather",
   "gcat": {
    "class": "B",
    "category": "MET",
    "owner": "TIANMU",
    "state": "CN"
   },
   "omm": {
    "OBJECT_NAME": "TIANMU-1 09",
    "OBJECT_ID": "2023-101C",
    "EPOCH": "2026-06-21T11:56:59.670240",
    "MEAN_MOTION": 15.2988621,
    "ECCENTRICITY": 0.0004785,
    "INCLINATION": 97.2536,
    "RA_OF_ASC_NODE": 222.251,
    "ARG_OF_PERICENTER": 117.1207,
    "MEAN_ANOMALY": 243.0522,
    "EPHEMERIS_TYPE": 0,
    "CLASSIFICATION_TYPE": "U",
    "NORAD_CAT_ID": 57401,
    "ELEMENT_SET_NO": 999,
    "REV_AT_EPOCH": 16230,
    "BSTAR": 0.00018018,
    "MEAN_MOTION_DOT": 0.00005141,
    "MEAN_MOTION_DDOT": 0
   }
  },
  {
   "norad": 57402,
   "name": "TIANMU-1 10",
   "intl": "2023-101D",
   "group": "weather",
   "gcat": {
    "class": "B",
    "category": "MET",
    "owner": "TIANMU",
    "state": "CN"
   },
   "omm": {
    "OBJECT_NAME": "TIANMU-1 10",
    "OBJECT_ID": "2023-101D",
    "EPOCH": "2026-06-21T11:10:30.876960",
    "MEAN_MOTION": 15.29857439,
    "ECCENTRICITY": 0.0006346,
    "INCLINATION": 97.2615,
    "RA_OF_ASC_NODE": 223.2743,
    "ARG_OF_PERICENTER": 115.1029,
    "MEAN_ANOMALY": 245.0871,
    "EPHEMERIS_TYPE": 0,
    "CLASSIFICATION_TYPE": "U",
    "NORAD_CAT_ID": 57402,
    "ELEMENT_SET_NO": 999,
    "REV_AT_EPOCH": 16229,
    "BSTAR": 0.00017632,
    "MEAN_MOTION_DOT": 0.00005026,
    "MEAN_MOTION_DDOT": 0
   }
  },
  {
   "norad": 58645,
   "name": "TIANMU-1 11",
   "intl": "2023-205A",
   "group": "weather",
   "gcat": {
    "class": "B",
    "category": "MET",
    "owner": "TIANMU",
    "state": "CN"
   },
   "omm": {
    "OBJECT_NAME": "TIANMU-1 11",
    "OBJECT_ID": "2023-205A",
    "EPOCH": "2026-06-21T12:13:41.244096",
    "MEAN_MOTION": 15.2703257,
    "ECCENTRICITY": 0.0008423,
    "INCLINATION": 97.3448,
    "RA_OF_ASC_NODE": 193.9985,
    "ARG_OF_PERICENTER": 2.1524,
    "MEAN_ANOMALY": 357.975,
    "EPHEMERIS_TYPE": 0,
    "CLASSIFICATION_TYPE": "U",
    "NORAD_CAT_ID": 58645,
    "ELEMENT_SET_NO": 999,
    "REV_AT_EPOCH": 13818,
    "BSTAR": 0.00016121,
    "MEAN_MOTION_DOT": 0.00004206,
    "MEAN_MOTION_DDOT": 0
   }
  },
  {
   "norad": 58646,
   "name": "TIANMU-1 12",
   "intl": "2023-205B",
   "group": "weather",
   "gcat": {
    "class": "B",
    "category": "MET",
    "owner": "TIANMU",
    "state": "CN"
   },
   "omm": {
    "OBJECT_NAME": "TIANMU-1 12",
    "OBJECT_ID": "2023-205B",
    "EPOCH": "2026-06-21T13:05:31.252704",
    "MEAN_MOTION": 15.2699888,
    "ECCENTRICITY": 0.0006195,
    "INCLINATION": 97.3438,
    "RA_OF_ASC_NODE": 193.7888,
    "ARG_OF_PERICENTER": 347.6663,
    "MEAN_ANOMALY": 12.4424,
    "EPHEMERIS_TYPE": 0,
    "CLASSIFICATION_TYPE": "U",
    "NORAD_CAT_ID": 58646,
    "ELEMENT_SET_NO": 999,
    "REV_AT_EPOCH": 13817,
    "BSTAR": 0.00017246,
    "MEAN_MOTION_DOT": 0.00004499,
    "MEAN_MOTION_DDOT": 0
   }
  },
  {
   "norad": 58647,
   "name": "TIANMU-1 13",
   "intl": "2023-205C",
   "group": "weather",
   "gcat": {
    "class": "B",
    "category": "MET",
    "owner": "TIANMU",
    "state": "CN"
   },
   "omm": {
    "OBJECT_NAME": "TIANMU-1 13",
    "OBJECT_ID": "2023-205C",
    "EPOCH": "2026-06-21T12:18:05.527008",
    "MEAN_MOTION": 15.26851187,
    "ECCENTRICITY": 0.0005433,
    "INCLINATION": 97.3464,
    "RA_OF_ASC_NODE": 194.0296,
    "ARG_OF_PERICENTER": 323.2905,
    "MEAN_ANOMALY": 36.7961,
    "EPHEMERIS_TYPE": 0,
    "CLASSIFICATION_TYPE": "U",
    "NORAD_CAT_ID": 58647,
    "ELEMENT_SET_NO": 999,
    "REV_AT_EPOCH": 13816,
    "BSTAR": 0.00016517,
    "MEAN_MOTION_DOT": 0.00004285,
    "MEAN_MOTION_DDOT": 0
   }
  }
 ]
}
